{
 "generated_at": "2026-06-18T09:14:20Z",
 "sources": [
  {
   "name": "CelesTrak",
   "url": "https://celestrak.org/NORAD/elements/",
   "license": "frei verfügbar; Attribution. Ursprünglich USSPACECOM/Space-Track."
  },
  {
   "name": "GCAT (J. McDowell, planet4589.org)",
   "url": "https://planet4589.org/space/gcat/",
   "license": "CC-BY 4.0"
  }
 ],
 "satellites": [
  {
   "norad": 49070,
   "name": "PLEIADES NEO 4",
   "intl": "2021-073E",
   "group": "resource",
   "gcat": {
    "class": null,
    "category": "IMG",
    "owner": "ADSTI",
    "state": "F"
   },
   "omm": {
    "OBJECT_NAME": "PLEIADES NEO 4",
    "OBJECT_ID": "2021-073E",
    "EPOCH": "2026-06-17T21:28:21.477792",
    "MEAN_MOTION": 14.81676806,
    "ECCENTRICITY": 0.00013562,
    "INCLINATION": 97.8937,
    "RA_OF_ASC_NODE": 243.647,
    "ARG_OF_PERICENTER": 86.0878,
    "MEAN_ANOMALY": 274.049,
    "EPHEMERIS_TYPE": 0,
    "CLASSIFICATION_TYPE": "U",
    "NORAD_CAT_ID": 49070,
    "ELEMENT_SET_NO": 999,
    "REV_AT_EPOCH": 26147,
    "BSTAR": 0.00010638164,
    "MEAN_MOTION_DOT": 0.00000785,
    "MEAN_MOTION_DDOT": 0
   }
  },
  {
   "norad": 68835,
   "name": "PRSC-E03",
   "intl": "2026-092A",
   "group": "resource",
   "gcat": {
    "class": "C",
    "category": "IMG",
    "owner": "SUPA",
    "state": "PK"
   },
   "omm": {
    "OBJECT_NAME": "PRSC-E03",
    "OBJECT_ID": "2026-092A",
    "EPOCH": "2026-06-17T18:50:00.047328",
    "MEAN_MOTION": 15.06670977,
    "ECCENTRICITY": 0.00036018,
    "INCLINATION": 38.0008,
    "RA_OF_ASC_NODE": 86.1566,
    "ARG_OF_PERICENTER": 9.2031,
    "MEAN_ANOMALY": 350.8796,
    "EPHEMERIS_TYPE": 0,
    "CLASSIFICATION_TYPE": "U",
    "NORAD_CAT_ID": 68835,
    "ELEMENT_SET_NO": 999,
    "REV_AT_EPOCH": 804,
    "BSTAR": 0.0001491545,
    "MEAN_MOTION_DOT": 0.00002147,
    "MEAN_MOTION_DDOT": 0
   }
  },
  {
   "norad": 62725,
   "name": "PRSC-EO1",
   "intl": "2025-012A",
   "group": "resource",
   "gcat": {
    "class": "C",
    "category": "IMG",
    "owner": "JHQJ/YINHE",
    "state": "CN"
   },
   "omm": {
    "OBJECT_NAME": "PRSC-EO1",
    "OBJECT_ID": "2025-012A",
    "EPOCH": "2026-06-17T23:35:22.256736",
    "MEAN_MOTION": 15.17617861,
    "ECCENTRICITY": 0.00048281,
    "INCLINATION": 97.4224,
    "RA_OF_ASC_NODE": 241.4275,
    "ARG_OF_PERICENTER": 248.6197,
    "MEAN_ANOMALY": 111.4522,
    "EPHEMERIS_TYPE": 0,
    "CLASSIFICATION_TYPE": "U",
    "NORAD_CAT_ID": 62725,
    "ELEMENT_SET_NO": 999,
    "REV_AT_EPOCH": 7831,
    "BSTAR": 0.00026243666,
    "MEAN_MOTION_DOT": 0.00005213,
    "MEAN_MOTION_DDOT": 0
   }
  },
  {
   "norad": 65055,
   "name": "PRSC-S1",
   "intl": "2025-164A",
   "group": "resource",
   "gcat": {
    "class": "C",
    "category": "IMG-R",
    "owner": "SUPA",
    "state": "PK"
   },
   "omm": {
    "OBJECT_NAME": "PRSC-S1",
    "OBJECT_ID": "2025-164A",
    "EPOCH": "2026-06-17T17:28:21.645120",
    "MEAN_MOTION": 15.06462716,
    "ECCENTRICITY": 0.00065139,
    "INCLINATION": 41.131,
    "RA_OF_ASC_NODE": 284.7669,
    "ARG_OF_PERICENTER": 347.4331,
    "MEAN_ANOMALY": 12.6319,
    "EPHEMERIS_TYPE": 0,
    "CLASSIFICATION_TYPE": "U",
    "NORAD_CAT_ID": 65055,
    "ELEMENT_SET_NO": 999,
    "REV_AT_EPOCH": 4851,
    "BSTAR": 0.00026794687,
    "MEAN_MOTION_DOT": 0.00003849,
    "MEAN_MOTION_DDOT": 0
   }
  },
  {
   "norad": 64055,
   "name": "QPS-SAR-10 (WADATSUMI-I)",
   "intl": "2025-104A",
   "group": "sar",
   "gcat": {
    "class": "B",
    "category": "IMG-R",
    "owner": "QPS",
    "state": "J"
   },
   "omm": {
    "OBJECT_NAME": "QPS-SAR-10 (WADATSUMI-I)",
    "OBJECT_ID": "2025-104A",
    "EPOCH": "2026-06-17T18:53:33.061344",
    "MEAN_MOTION": 15.01782184,
    "ECCENTRICITY": 0.00132457,
    "INCLINATION": 42.0041,
    "RA_OF_ASC_NODE": 275.6726,
    "ARG_OF_PERICENTER": 337.5829,
    "MEAN_ANOMALY": 22.4417,
    "EPHEMERIS_TYPE": 0,
    "CLASSIFICATION_TYPE": "U",
    "NORAD_CAT_ID": 64055,
    "ELEMENT_SET_NO": 999,
    "REV_AT_EPOCH": 5952,
    "BSTAR": 0.00027953577,
    "MEAN_MOTION_DOT": 0.00003523,
    "MEAN_MOTION_DDOT": 0
   }
  },
  {
   "norad": 64340,
   "name": "QPS-SAR-11 (YAMATSUMI-I)",
   "intl": "2025-125A",
   "group": "sar",
   "gcat": {
    "class": "B",
    "category": "IMG-R",
    "owner": "QPS",
    "state": "J"
   },
   "omm": {
    "OBJECT_NAME": "QPS-SAR-11 (YAMATSUMI-I)",
    "OBJECT_ID": "2025-125A",
    "EPOCH": "2026-06-17T12:34:04.135872",
    "MEAN_MOTION": 15.0161151,
    "ECCENTRICITY": 0.0008931,
    "INCLINATION": 42.0059,
    "RA_OF_ASC_NODE": 189.9199,
    "ARG_OF_PERICENTER": 135.0609,
    "MEAN_ANOMALY": 225.0941,
    "EPHEMERIS_TYPE": 0,
    "CLASSIFICATION_TYPE": "U",
    "NORAD_CAT_ID": 64340,
    "ELEMENT_SET_NO": 999,
    "REV_AT_EPOCH": 5567,
    "BSTAR": 0.0002336,
    "MEAN_MOTION_DOT": 0.00002897,
    "MEAN_MOTION_DDOT": 0
   }
  },
  {
   "norad": 65116,
   "name": "QPS-SAR-12 (KUSHINADA-I)",
   "intl": "2025-169A",
   "group": "sar",
   "gcat": {
    "class": "B",
    "category": "IMG-R",
    "owner": "QPS",
    "state": "J"
   },
   "omm": {
    "OBJECT_NAME": "QPS-SAR-12 (KUSHINADA-I)",
    "OBJECT_ID": "2025-169A",
    "EPOCH": "2026-06-17T20:05:39.862752",
    "MEAN_MOTION": 15.00854214,
    "ECCENTRICITY": 0.00081684,
    "INCLINATION": 42.0127,
    "RA_OF_ASC_NODE": 12.4053,
    "ARG_OF_PERICENTER": 227.1866,
    "MEAN_ANOMALY": 132.8274,
    "EPHEMERIS_TYPE": 0,
    "CLASSIFICATION_TYPE": "U",
    "NORAD_CAT_ID": 65116,
    "ELEMENT_SET_NO": 999,
    "REV_AT_EPOCH": 4751,
    "BSTAR": 0.00029767216,
    "MEAN_MOTION_DOT": 0.00003667,
    "MEAN_MOTION_DDOT": 0
   }
  },
  {
   "norad": 66316,
   "name": "QPS-SAR-14 (YACHIHOKO-I)",
   "intl": "2025-252A",
   "group": "sar",
   "gcat": {
    "class": "B",
    "category": "IMG-R",
    "owner": "QPS",
    "state": "J"
   },
   "omm": {
    "OBJECT_NAME": "QPS-SAR-14 (YACHIHOKO-I)",
    "OBJECT_ID": "2025-252A",
    "EPOCH": "2026-06-17T04:40:44.963904",
    "MEAN_MOTION": 14.99687957,
    "ECCENTRICITY": 0.00074418,
    "INCLINATION": 42.0035,
    "RA_OF_ASC_NODE": 131.7777,
    "ARG_OF_PERICENTER": 259.624,
    "MEAN_ANOMALY": 100.3747,
    "EPHEMERIS_TYPE": 0,
    "CLASSIFICATION_TYPE": "U",
    "NORAD_CAT_ID": 66316,
    "ELEMENT_SET_NO": 999,
    "REV_AT_EPOCH": 3351,
    "BSTAR": 0.00028385206,
    "MEAN_MOTION_DOT": 0.00003379,
    "MEAN_MOTION_DDOT": 0
   }
  },
  {
   "norad": 67228,
   "name": "QPS-SAR-15 (SUKUNAMI-I)",
   "intl": "2025-307A",
   "group": "sar",
   "gcat": {
    "class": "B",
    "category": "IMG-R",
    "owner": "QPS",
    "state": "J"
   },
   "omm": {
    "OBJECT_NAME": "QPS-SAR-15 (SUKUNAMI-I)",
    "OBJECT_ID": "2025-307A",
    "EPOCH": "2026-06-15T21:45:27.296352",
    "MEAN_MOTION": 14.98987544,
    "ECCENTRICITY": 0.0010496,
    "INCLINATION": 42.0057,
    "RA_OF_ASC_NODE": 234.9331,
    "ARG_OF_PERICENTER": 340.3504,
    "MEAN_ANOMALY": 19.6916,
    "EPHEMERIS_TYPE": 0,
    "CLASSIFICATION_TYPE": "U",
    "NORAD_CAT_ID": 67228,
    "ELEMENT_SET_NO": 999,
    "REV_AT_EPOCH": 2649,
    "BSTAR": 0.00026931,
    "MEAN_MOTION_DOT": 0.00003137,
    "MEAN_MOTION_DDOT": 0
   }
  },
  {
   "norad": 58578,
   "name": "QPS-SAR-5 (TSUKUYOMI-I)",
   "intl": "2023-196A",
   "group": "sar",
   "gcat": {
    "class": "B",
    "category": "IMG-R",
    "owner": "QPS",
    "state": "J"
   },
   "omm": {
    "OBJECT_NAME": "QPS-SAR-5 (TSUKUYOMI-I)",
    "OBJECT_ID": "2023-196A",
    "EPOCH": "2026-06-17T22:59:50.009280",
    "MEAN_MOTION": 15.22601542,
    "ECCENTRICITY": 0.00272532,
    "INCLINATION": 42.0105,
    "RA_OF_ASC_NODE": 11.5069,
    "ARG_OF_PERICENTER": 286.4459,
    "MEAN_ANOMALY": 73.338,
    "EPHEMERIS_TYPE": 0,
    "CLASSIFICATION_TYPE": "U",
    "NORAD_CAT_ID": 58578,
    "ELEMENT_SET_NO": 999,
    "REV_AT_EPOCH": 13836,
    "BSTAR": 0.00043166016,
    "MEAN_MOTION_DOT": 0.00010116,
    "MEAN_MOTION_DDOT": 0
   }
  }
 ]
}
