PLEIADES NEO 4          
1 49070U 21073E   26168.89469303  .00000785  00000+0  10638-3 0  9998
2 49070  97.8937 243.6470 0001356  86.0878 274.0490 14.81676806261476
QPS-SAR-5 (TSUKUYOMI-I) 
1 58578U 23196A   26168.95821770  .00010116  00000+0  43166-3 0  9997
2 58578  42.0105  11.5069 0027253 286.4459  73.3380 15.22601542138369
PRSC-EO1                
1 62725U 25012A   26168.98289649  .00005213  00000+0  26244-3 0  9991
2 62725  97.4224 241.4275 0004828 248.6197 111.4522 15.17617861 78314
QPS-SAR-10 (WADATSUMI-I)
1 64055U 25104A   26168.78718821  .00003523  00000+0  27954-3 0  9999
2 64055  42.0041 275.6726 0013245 337.5829  22.4417 15.01782184 59528
QPS-SAR-11 (YAMATSUMI-I)
1 64340U 25125A   26168.52365898  .00002897  00000+0  23360-3 0  9993
2 64340  42.0059 189.9199 0008931 135.0609 225.0941 15.01611510 55677
PRSC-S1                 
1 65055U 25164A   26168.72802830  .00003849  00000+0  26795-3 0  9997
2 65055  41.1310 284.7669 0006513 347.4331  12.6319 15.06462716 48513
QPS-SAR-12 (KUSHINADA-I)
1 65116U 25169A   26168.83726693  .00003667  00000+0  29767-3 0  9994
2 65116  42.0127  12.4053 0008168 227.1866 132.8274 15.00854214 47511
QPS-SAR-14 (YACHIHOKO-I)
1 66316U 25252A   26168.19496486  .00003379  00000+0  28385-3 0  9998
2 66316  42.0035 131.7777 0007441 259.6240 100.3747 14.99687957 33514
QPS-SAR-15 (SUKUNAMI-I) 
1 67228U 25307A   26166.90656593  .00003137  00000+0  26931-3 0  9993
2 67228  42.0057 234.9331 0010496 340.3504  19.6916 14.98987544 26491
PRSC-E03                
1 68835U 26092A   26168.78472277  .00002147  00000+0  14915-3 0  9992
2 68835  38.0008  86.1566 0003601   9.2031 350.8796 15.06670977  8046
